OBJECT_NAME,OBJECT_ID,EPOCH,MEAN_MOTION,ECCENTRICITY,INCLINATION,RA_OF_ASC_NODE,ARG_OF_PERICENTER,MEAN_ANOMALY,EPHEMERIS_TYPE,CLASSIFICATION_TYPE,NORAD_CAT_ID,ELEMENT_SET_NO,REV_AT_EPOCH,BSTAR,MEAN_MOTION_DOT,MEAN_MOTION_DDOT
KUIPER-00606,2026-118Y,2026-06-09T06:17:32.244000,15.37620294,.00047336,51.8689,91.5703,123.8421,236.3017,0,U,69289,999,276,.5594176E-3,.20651E-3,0
KUIPER-00607,2026-118Z,2026-06-09T06:20:37.533120,15.37302376,.00063545,51.8680,91.5849,129.9000,230.2546,0,U,69290,999,276,.51801504E-3,.18895E-3,0
KUIPER-00608,2026-118AA,2026-06-09T03:22:55.184736,15.35843626,.00094391,51.8603,92.2563,148.5080,211.6472,0,U,69291,999,274,-.31492394E-2,-.110495E-2,0
KUIPER-00610,2026-118AB,2026-06-09T06:12:25.458336,15.38165865,.00029481,51.8718,91.5409,108.4692,251.6616,0,U,69292,999,276,.5344969E-3,.20066E-3,0
KUIPER-00613,2026-118AC,2026-06-09T05:00:37.380672,15.35299725,.00102336,51.8626,91.9604,158.0733,202.0692,0,U,69293,999,275,-.49637769E-4,-.2118E-4,0
KUIPER-00618,2026-118AD,2026-06-09T06:08:41.762688,15.38444643,.00020201,51.8715,91.5241,68.5415,291.5788,0,U,69294,999,276,-.24410974E-3,-.9789E-4,0
KUIPER-00620,2026-118AE,2026-06-09T06:11:35.904480,15.38244634,.00030349,51.8713,91.5401,95.4110,264.7223,0,U,69295,999,276,.51710784E-3,.19449E-3,0
STARLINK-37501,2026-119A,2026-06-09T06:00:02.999808,15.79975613,.0000955,97.2838,185.6322,91.4766,7.7007,0,U,69296,999,261,-.6191235E-3,-.112811E-2,0
STARLINK-37496,2026-119B,2026-06-09T06:00:02.999808,15.79952704,.00007576,97.2838,185.6315,103.6409,352.8458,0,U,69297,999,261,-.48413983E-3,-.88399E-3,0
STARLINK-37519,2026-119C,2026-06-09T06:00:02.999808,15.80783254,.00012843,97.2838,185.6408,99.3087,15.7128,0,U,69298,999,261,.22190903E-3,.42508E-3,0
STARLINK-37455,2026-119D,2026-06-09T06:00:02.999808,15.79969233,.00014429,97.2841,185.6369,78.5317,27.5587,0,U,69299,999,261,-.31008121E-3,-.56919E-3,0
STARLINK-37456,2026-119E,2026-06-09T06:00:02.999808,15.80796098,.00009212,97.2836,185.6424,121.5813,357.9317,0,U,69300,999,261,.29956385E-4,.5595E-4,0
STARLINK-37630,2026-119F,2026-06-09T06:00:02.999808,15.80801958,.00006463,97.2836,185.6424,86.5717,35.5239,0,U,69301,999,277,.41288223E-4,.7769E-4,0
STARLINK-37804,2026-119G,2026-06-09T06:00:02.999808,15.80799847,.0000902,97.2837,185.6426,111.7263,12.0733,0,U,69302,999,277,.35121299E-4,.6586E-4,0
STARLINK-37730,2026-119H,2026-06-09T06:00:02.999808,15.80775620,.0000681,97.2834,185.6471,116.3066,15.9387,0,U,69303,999,277,.31557343E-3,.60613E-3,0
STARLINK-37731,2026-119J,2026-06-09T06:00:02.999808,15.80757510,.00011946,97.2834,185.6474,88.7581,44.2597,0,U,69304,999,277,.41372211E-3,.79618E-3,0
STARLINK-37734,2026-119K,2026-06-09T06:00:02.999808,15.80785443,.00007337,97.2833,185.6502,84.0695,54.1406,0,U,69305,999,277,.24171488E-3,.46338E-3,0
STARLINK-37701,2026-119L,2026-06-09T06:00:02.999808,15.80773401,.00007637,97.2836,185.6505,59.9869,79.7645,0,U,69306,999,277,.32512444E-3,.62458E-3,0
STARLINK-37732,2026-119M,2026-06-09T06:00:02.999808,15.80756628,.00012214,97.2834,185.6521,83.0686,59.0715,0,U,69307,999,277,.44609107E-3,.85917E-3,0
STARLINK-37689,2026-119N,2026-06-09T06:00:02.999808,15.80772727,.00008799,97.2836,185.6543,78.4566,70.4042,0,U,69308,999,277,.31768458E-3,.61014E-3,0
STARLINK-37619,2026-119P,2026-06-09T06:00:02.999808,15.80785985,.00014536,97.2833,185.6559,98.2166,53.6237,0,U,69309,999,277,.2406866E-3,.46142E-3,0
STARLINK-37794,2026-119Q,2026-06-09T06:00:02.999808,15.80782393,.00007539,97.2835,185.6616,75.8382,88.6932,0,U,69310,999,277,.24007255E-3,.46014E-3,0
STARLINK-37795,2026-119R,2026-06-09T06:00:02.999808,15.80846478,.00010606,97.2833,185.6610,98.5994,67.9936,0,U,69311,999,277,-.52052645E-3,-.98861E-3,0
STARLINK-37790,2026-119S,2026-06-09T06:00:02.999808,15.80780302,.00011147,97.2836,185.6646,80.4704,91.4873,0,U,69312,999,277,.2978443E-3,.5719E-3,0
STARLINK-37676,2026-119T,2026-06-09T06:00:02.999808,15.80819743,.00007039,97.2836,185.6685,76.0972,107.3458,0,U,69313,999,277,.4047022E-4,.7618E-4,0
STARLINK-37617,2026-119U,2026-06-09T06:00:02.999808,15.80889599,.0001347,97.2836,185.6713,99.1785,89.2098,0,U,69314,999,277,-.59556817E-3,-.113137E-2,0
STARLINK-37627,2026-119V,2026-06-09T06:00:02.999808,15.80892884,.00006177,97.2837,185.6724,92.3099,97.8632,0,U,69315,999,277,-.60436084E-3,-.114791E-2,0
STARLINK-37738,2026-119W,2026-06-09T06:00:02.999808,15.80761641,.00009763,97.2830,185.6667,84.7774,92.7005,0,U,69316,999,277,.39038537E-3,.75093E-3,0
STARLINK-37799,2026-119X,2026-06-09T06:00:02.999808,15.80867219,.00011422,97.2833,185.6703,104.4602,81.7011,0,U,69317,999,272,-.4936135E-3,-.939E-3,0
STARLINK-37802,2026-119Y,2026-06-09T06:00:02.999808,15.80897720,.00009925,97.2834,185.6760,104.3082,93.3352,0,U,69318,999,277,-.68059855E-3,-.129077E-2,0
