KUIPER-00606            
1 69289U 26118Y   26160.26217875  .00020651  00000+0  55942-3 0  9996
2 69289  51.8689  91.5703 0004733 123.8421 236.3017 15.37620294  2762
KUIPER-00607            
1 69290U 26118Z   26160.26432330  .00018895  00000+0  51802-3 0  9991
2 69290  51.8680  91.5849 0006354 129.9000 230.2546 15.37302376  2765
KUIPER-00608            
1 69291U 26118AA  26160.14091649 -.00110495  00000+0 -31492-2 0  9996
2 69291  51.8603  92.2563 0009439 148.5080 211.6472 15.35843626  2749
KUIPER-00610            
1 69292U 26118AB  26160.25862799  .00020066  00000+0  53450-3 0  9992
2 69292  51.8718  91.5409 0002948 108.4692 251.6616 15.38165865  2761
KUIPER-00613            
1 69293U 26118AC  26160.20876598 -.00002118  00000+0 -49638-4 0  9994
2 69293  51.8626  91.9604 0010233 158.0733 202.0692 15.35299725  2757
KUIPER-00618            
1 69294U 26118AD  26160.25603892 -.00009789  00000+0 -24411-3 0  9997
2 69294  51.8715  91.5241 0002020  68.5415 291.5788 15.38444643  2761
KUIPER-00620            
1 69295U 26118AE  26160.25805445  .00019449  00000+0  51711-3 0  9991
2 69295  51.8713  91.5401 0003034  95.4110 264.7223 15.38244634  2769
STARLINK-37501          
1 69296U 26119A   26160.25003472 -.00112811  00000+0 -61912-3 0  9996
2 69296  97.2838 185.6322 0000955  91.4766   7.7007 15.79975613  2613
STARLINK-37496          
1 69297U 26119B   26160.25003472 -.00088399  00000+0 -48414-3 0  9992
2 69297  97.2838 185.6315 0000757 103.6409 352.8458 15.79952704  2616
STARLINK-37519          
1 69298U 26119C   26160.25003472  .00042508  00000+0  22191-3 0  9997
2 69298  97.2838 185.6408 0001284  99.3087  15.7128 15.80783254  2612
STARLINK-37455          
1 69299U 26119D   26160.25003472 -.00056919  00000+0 -31008-3 0  9998
2 69299  97.2841 185.6369 0001442  78.5317  27.5587 15.79969233  2615
STARLINK-37456          
1 69300U 26119E   26160.25003472  .00005595  00000+0  29956-4 0  9993
2 69300  97.2836 185.6424 0000921 121.5813 357.9317 15.80796098  2615
STARLINK-37630          
1 69301U 26119F   26160.25003472  .00007769  00000+0  41288-4 0  9991
2 69301  97.2836 185.6424 0000646  86.5717  35.5239 15.80801958  2774
STARLINK-37804          
1 69302U 26119G   26160.25003472  .00006586  00000+0  35121-4 0  9997
2 69302  97.2837 185.6426 0000902 111.7263  12.0733 15.80799847  2772
STARLINK-37730          
1 69303U 26119H   26160.25003472  .00060613  00000+0  31557-3 0  9997
2 69303  97.2834 185.6471 0000681 116.3066  15.9387 15.80775620  2776
STARLINK-37731          
1 69304U 26119J   26160.25003472  .00079618  00000+0  41372-3 0  9999
2 69304  97.2834 185.6474 0001194  88.7581  44.2597 15.80757510  2770
STARLINK-37734          
1 69305U 26119K   26160.25003472  .00046338  00000+0  24171-3 0  9991
2 69305  97.2833 185.6502 0000733  84.0695  54.1406 15.80785443  2770
STARLINK-37701          
1 69306U 26119L   26160.25003472  .00062458  00000+0  32512-3 0  9991
2 69306  97.2836 185.6505 0000763  59.9869  79.7645 15.80773401  2773
STARLINK-37732          
1 69307U 26119M   26160.25003472  .00085917  00000+0  44609-3 0  9997
2 69307  97.2834 185.6521 0001221  83.0686  59.0715 15.80756628  2776
STARLINK-37689          
1 69308U 26119N   26160.25003472  .00061014  00000+0  31768-3 0  9992
2 69308  97.2836 185.6543 0000879  78.4566  70.4042 15.80772727  2774
STARLINK-37619          
1 69309U 26119P   26160.25003472  .00046142  00000+0  24069-3 0  9994
2 69309  97.2833 185.6559 0001453  98.2166  53.6237 15.80785985  2773
STARLINK-37794          
1 69310U 26119Q   26160.25003472  .00046014  00000+0  24007-3 0  9996
2 69310  97.2835 185.6616 0000753  75.8382  88.6932 15.80782393  2774
STARLINK-37795          
1 69311U 26119R   26160.25003472 -.00098861  00000+0 -52053-3 0  9998
2 69311  97.2833 185.6610 0001060  98.5994  67.9936 15.80846478  2779
STARLINK-37790          
1 69312U 26119S   26160.25003472  .00057190  00000+0  29784-3 0  9992
2 69312  97.2836 185.6646 0001114  80.4704  91.4873 15.80780302  2776
STARLINK-37676          
1 69313U 26119T   26160.25003472  .00007618  00000+0  40470-4 0  9999
2 69313  97.2836 185.6685 0000703  76.0972 107.3458 15.80819743  2779
STARLINK-37617          
1 69314U 26119U   26160.25003472 -.00113137  00000+0 -59557-3 0  9991
2 69314  97.2836 185.6713 0001347  99.1785  89.2098 15.80889599  2779
STARLINK-37627          
1 69315U 26119V   26160.25003472 -.00114791  00000+0 -60436-3 0  9997
2 69315  97.2837 185.6724 0000617  92.3099  97.8632 15.80892884  2775
STARLINK-37738          
1 69316U 26119W   26160.25003472  .00075093  00000+0  39039-3 0  9992
2 69316  97.2830 185.6667 0000976  84.7774  92.7005 15.80761641  2772
STARLINK-37799          
1 69317U 26119X   26160.25003472 -.00093900  00000+0 -49361-3 0  9991
2 69317  97.2833 185.6703 0001142 104.4602  81.7011 15.80867219  2721
STARLINK-37802          
1 69318U 26119Y   26160.25003472 -.00129077  00000+0 -68060-3 0  9994
2 69318  97.2834 185.6760 0000992 104.3082  93.3352 15.80897720  2771
